IRIDIUM 136             
1 42962U 17061H   24060.91503117  .00000042  00000+0  79725-5 0  9997
2 42962  86.4011  15.5523 0001967  83.1860 276.9559 14.34217396334682
